STARLINK-36198          
1 67167U 25303E   26068.66670139  .00040204  00000+0  14633-2 0  9998
2 67167  43.0009 311.2223 0001517 270.5874 221.4743 15.27564344  5814
2025-313BD              
1 67299U 25313BD  26068.62968741  .00081010  00000+0  27634-2 0  9995
2 67299  97.3970 145.2850 0007287 333.4514  26.6352 15.30002360 10838
